{
  "norad_id": 40534,
  "name": "NAVSTAR 73 (USA 260)",
  "history": [
    {
      "epoch": "2026-03-27T07:00:33.330816Z",
      "apogee_km": 20471.83033769517,
      "perigee_km": 19893.903793177535,
      "latitude_deg": 8.328996930205892e-06,
      "longitude_deg": -82.31365463041756,
      "height_km": 19960.147921222386,
      "semi_major_axis_km": 26561.00406543635,
      "eccentricity": 0.01087923,
      "inclination_deg": 53.181,
      "raan_deg": 207.5638,
      "arg_perigee_deg": 39.9071,
      "mean_anomaly_deg": 320.8617,
      "mean_motion_rev_day": 2.00556171
    }
  ]
}